{
  "type": "FeatureCollection",
  "features": [
    {
      "type": "Feature",
      "properties": {
        "norad_id": 34852,
        "name": "COSMOS 2251 DEB",
        "group": "cosmos-2251-debris",
        "lat": 42.68947569165486,
        "lon": 48.40299273176396,
        "alt_km": 774.8307372600602,
        "timestamp": "2025-12-23T05:02:12.425133+00:00",
        "meta_object_name": "COSMOS 2251 DEB",
        "meta_object_id": "1993-036ABW",
        "meta_epoch": "2025-12-22T10:01:54.526080",
        "meta_mean_motion": 14.37012127,
        "meta_eccentricity": 0.00166159,
        "meta_inclination": 74.0324,
        "meta_ra_of_asc_node": 245.1729,
        "meta_arg_of_pericenter": 346.342,
        "meta_mean_anomaly": 13.7281,
        "meta_ephemeris_type": 0,
        "meta_classification_type": "U",
        "meta_norad_cat_id": 34852,
        "meta_element_set_no": 999,
        "meta_rev_at_epoch": 87673,
        "meta_bstar": 0.00010888477,
        "meta_mean_motion_dot": 2.97e-06,
        "meta_mean_motion_ddot": 0,
        "tle_line1": "1 34852U 93036ABW 25356.41799220  .00000297  00000+0  10888-3 0  9993",
        "tle_line2": "2 34852  74.0324 245.1729 0016615 346.3420  13.7281 14.37012127876736"
      },
      "geometry": {
        "type": "Point",
        "coordinates": [
          48.40299273176396,
          42.68947569165486
        ]
      }
    },
    {
      "type": "Feature",
      "properties": {
        "norad_id": 34854,
        "name": "COSMOS 2251 DEB",
        "group": "cosmos-2251-debris",
        "lat": 73.90538223852397,
        "lon": -124.95222654871867,
        "alt_km": 674.421759662755,
        "timestamp": "2025-12-23T05:02:12.425143+00:00",
        "meta_object_name": "COSMOS 2251 DEB",
        "meta_object_id": "1993-036ABY",
        "meta_epoch": "2025-12-20T16:27:30.286080",
        "meta_mean_motion": 14.76695376,
        "meta_eccentricity": 0.00660109,
        "meta_inclination": 74.029,
        "meta_ra_of_asc_node": 143.0056,
        "meta_arg_of_pericenter": 253.0888,
        "meta_mean_anomaly": 106.3042,
        "meta_ephemeris_type": 0,
        "meta_classification_type": "U",
        "meta_norad_cat_id": 34854,
        "meta_element_set_no": 999,
        "meta_rev_at_epoch": 71999,
        "meta_bstar": 0.00047616561,
        "meta_mean_motion_dot": 3.419e-05,
        "meta_mean_motion_ddot": 0,
        "tle_line1": "1 34854U 93036ABY 25354.68576720  .00003419  00000+0  47617-3 0  9999",
        "tle_line2": "2 34854  74.0290 143.0056 0066010 253.0888 106.3042 14.76695376719999"
      },
      "geometry": {
        "type": "Point",
        "coordinates": [
          -124.95222654871867,
          73.90538223852397
        ]
      }
    },
    {
      "type": "Feature",
      "properties": {
        "norad_id": 34856,
        "name": "COSMOS 2251 DEB",
        "group": "cosmos-2251-debris",
        "lat": -21.921346408264583,
        "lon": -110.0569735133492,
        "alt_km": 530.0762128027709,
        "timestamp": "2025-12-23T05:02:12.425153+00:00",
        "meta_object_name": "COSMOS 2251 DEB",
        "meta_object_id": "1993-036ACA",
        "meta_epoch": "2025-12-22T22:32:30.098400",
        "meta_mean_motion": 15.06548728,
        "meta_eccentricity": 0.00313651,
        "meta_inclination": 73.9962,
        "meta_ra_of_asc_node": 63.8671,
        "meta_arg_of_pericenter": 199.9477,
        "meta_mean_anomaly": 335.6172,
        "meta_ephemeris_type": 0,
        "meta_classification_type": "U",
        "meta_norad_cat_id": 34856,
        "meta_element_set_no": 999,
        "meta_rev_at_epoch": 89265,
        "meta_bstar": 0.0017113125,
        "meta_mean_motion_dot": 0.00025654,
        "meta_mean_motion_ddot": 0,
        "tle_line1": "1 34856U 93036ACA 25356.93923725  .00025654  00000+0  17113-2 0  9994",
        "tle_line2": "2 34856  73.9962  63.8671 0031365 199.9477 335.6172 15.06548728892652"
      },
      "geometry": {
        "type": "Point",
        "coordinates": [
          -110.0569735133492,
          -21.921346408264583
        ]
      }
    },
    {
      "type": "Feature",
      "properties": {
        "norad_id": 34857,
        "name": "COSMOS 2251 DEB",
        "group": "cosmos-2251-debris",
        "lat": -46.10399081667508,
        "lon": -75.81034215194349,
        "alt_km": 659.0962599957729,
        "timestamp": "2025-12-23T05:02:12.425163+00:00",
        "meta_object_name": "COSMOS 2251 DEB",
        "meta_object_id": "1993-036ACB",
        "meta_epoch": "2025-12-22T17:10:15.999744",
        "meta_mean_motion": 14.58984962,
        "meta_eccentricity": 0.00654116,
        "meta_inclination": 74.0156,
        "meta_ra_of_asc_node": 87.8006,
        "meta_arg_of_pericenter": 210.4107,
        "meta_mean_anomaly": 302.1039,
        "meta_ephemeris_type": 0,
        "meta_classification_type": "U",
        "meta_norad_cat_id": 34857,
        "meta_element_set_no": 999,
        "meta_rev_at_epoch": 88046,
        "meta_bstar": 0.0010262186,
        "meta_mean_motion_dot": 4.934e-05,
        "meta_mean_motion_ddot": 0,
        "tle_line1": "1 34857U 93036ACB 25356.71546296  .00004934  00000+0  10262-2 0  9991",
        "tle_line2": "2 34857  74.0156  87.8006 0065411 210.4107 302.1039 14.58984962880463"
      },
      "geometry": {
        "type": "Point",
        "coordinates": [
          -75.81034215194349,
          -46.10399081667508
        ]
      }
    },
    {
      "type": "Feature",
      "properties": {
        "norad_id": 34859,
        "name": "COSMOS 2251 DEB",
        "group": "cosmos-2251-debris",
        "lat": 26.887478310269476,
        "lon": 129.5029874893176,
        "alt_km": 517.239724639423,
        "timestamp": "2025-12-23T05:02:12.425173+00:00",
        "meta_object_name": "COSMOS 2251 DEB",
        "meta_object_id": "1993-036ACD",
        "meta_epoch": "2025-12-20T00:39:03.765024",
        "meta_mean_motion": 15.15832734,
        "meta_eccentricity": 0.00020914,
        "meta_inclination": 74.0278,
        "meta_ra_of_asc_node": 324.4843,
        "meta_arg_of_pericenter": 20.5726,
        "meta_mean_anomaly": 48.6407,
        "meta_ephemeris_type": 0,
        "meta_classification_type": "U",
        "meta_norad_cat_id": 34859,
        "meta_element_set_no": 999,
        "meta_rev_at_epoch": 88469,
        "meta_bstar": 0.0027292363,
        "meta_mean_motion_dot": 0.00052535,
        "meta_mean_motion_ddot": 0,
        "tle_line1": "1 34859U 93036ACD 25354.02712691  .00052535  00000+0  27292-2 0  9990",
        "tle_line2": "2 34859  74.0278 324.4843 0002091  20.5726  48.6407 15.15832734884694"
      },
      "geometry": {
        "type": "Point",
        "coordinates": [
          129.5029874893176,
          26.887478310269476
        ]
      }
    },
    {
      "type": "Feature",
      "properties": {
        "norad_id": 34861,
        "name": "COSMOS 2251 DEB",
        "group": "cosmos-2251-debris",
        "lat": -54.87220107226902,
        "lon": 5.4111646644438185,
        "alt_km": 562.5101137002421,
        "timestamp": "2025-12-23T05:02:12.425183+00:00",
        "meta_object_name": "COSMOS 2251 DEB",
        "meta_object_id": "1993-036ACF",
        "meta_epoch": "2025-12-22T20:29:45.163680",
        "meta_mean_motion": 15.03156341,
        "meta_eccentricity": 0.00082362,
        "meta_inclination": 74.0169,
        "meta_ra_of_asc_node": 30.1803,
        "meta_arg_of_pericenter": 19.7452,
        "meta_mean_anomaly": 157.1741,
        "meta_ephemeris_type": 0,
        "meta_classification_type": "U",
        "meta_norad_cat_id": 34861,
        "meta_element_set_no": 999,
        "meta_rev_at_epoch": 88244,
        "meta_bstar": 0.0025983584,
        "meta_mean_motion_dot": 0.00035279,
        "meta_mean_motion_ddot": 0,
        "tle_line1": "1 34861U 93036ACF 25356.85399495  .00035279  00000+0  25984-2 0  9991",
        "tle_line2": "2 34861  74.0169  30.1803 0008236  19.7452 157.1741 15.03156341882444"
      },
      "geometry": {
        "type": "Point",
        "coordinates": [
          5.4111646644438185,
          -54.87220107226902
        ]
      }
    },
    {
      "type": "Feature",
      "properties": {
        "norad_id": 34874,
        "name": "COSMOS 2251 DEB",
        "group": "cosmos-2251-debris",
        "lat": -73.85275142240441,
        "lon": -44.176937276956096,
        "alt_km": 812.9930948978081,
        "timestamp": "2025-12-23T05:02:12.425193+00:00",
        "meta_object_name": "COSMOS 2251 DEB",
        "meta_object_id": "1993-036ACM",
        "meta_epoch": "2025-12-22T04:32:10.055328",
        "meta_mean_motion": 14.36351572,
        "meta_eccentricity": 0.00505582,
        "meta_inclination": 74.0394,
        "meta_ra_of_asc_node": 56.4116,
        "meta_arg_of_pericenter": 78.6258,
        "meta_mean_anomaly": 312.4475,
        "meta_ephemeris_type": 0,
        "meta_classification_type": "U",
        "meta_norad_cat_id": 34874,
        "meta_element_set_no": 999,
        "meta_rev_at_epoch": 87180,
        "meta_bstar": 0.00076191071,
        "meta_mean_motion_dot": 2.237e-05,
        "meta_mean_motion_ddot": 0,
        "tle_line1": "1 34874U 93036ACM 25356.18900527  .00002237  00000+0  76191-3 0  9990",
        "tle_line2": "2 34874  74.0394  56.4116 0050558  78.6258 312.4475 14.36351572871804"
      },
      "geometry": {
        "type": "Point",
        "coordinates": [
          -44.176937276956096,
          -73.85275142240441
        ]
      }
    }
  ]
}